{
  "type": "FeatureCollection",
  "features": [
    {
      "type": "Feature",
      "properties": {
        "norad_id": 63772,
        "name": "BIOMASS",
        "group": "resource",
        "lat": 11.711139689358543,
        "lon": -11.828432157253834,
        "alt_km": 670.5978368568631,
        "timestamp": "2025-12-07T09:35:09.450034+00:00",
        "meta_object_name": "BIOMASS",
        "meta_object_id": "2025-090A",
        "meta_epoch": "2025-12-06T11:32:58.794720",
        "meta_mean_motion": 14.67526401,
        "meta_eccentricity": 0.00011513,
        "meta_inclination": 98.0712,
        "meta_ra_of_asc_node": 165.5814,
        "meta_arg_of_pericenter": 62.7963,
        "meta_mean_anomaly": 297.3359,
        "meta_ephemeris_type": 0,
        "meta_classification_type": "U",
        "meta_norad_cat_id": 63772,
        "meta_element_set_no": 999,
        "meta_rev_at_epoch": 3242,
        "meta_bstar": -0.00051875312,
        "meta_mean_motion_dot": -2.987e-05,
        "meta_mean_motion_ddot": 0,
        "tle_line1": "1 63772U 25090A   25340.48123605 -.00002987  00000+0 -51875-3 0  9990",
        "tle_line2": "2 63772  98.0712 165.5814 0001151  62.7963 297.3359 14.67526401 32420"
      },
      "geometry": {
        "type": "Point",
        "coordinates": [
          -11.828432157253834,
          11.711139689358543
        ]
      }
    },
    {
      "type": "Feature",
      "properties": {
        "norad_id": 64694,
        "name": "GOSAT-GW (IBUKI GW)",
        "group": "resource",
        "lat": 16.851221673508967,
        "lon": -85.44546876756007,
        "alt_km": 668.9823453366544,
        "timestamp": "2025-12-07T09:35:09.450044+00:00",
        "meta_object_name": "GOSAT-GW (IBUKI GW)",
        "meta_object_id": "2025-141A",
        "meta_epoch": "2025-12-06T22:03:15.010272",
        "meta_mean_motion": 14.67557661,
        "meta_eccentricity": 0.00015103,
        "meta_inclination": 98.0423,
        "meta_ra_of_asc_node": 276.5373,
        "meta_arg_of_pericenter": 83.2673,
        "meta_mean_anomaly": 276.8703,
        "meta_ephemeris_type": 0,
        "meta_classification_type": "U",
        "meta_norad_cat_id": 64694,
        "meta_element_set_no": 999,
        "meta_rev_at_epoch": 2364,
        "meta_bstar": 0.00036117028,
        "meta_mean_motion_dot": 2.002e-05,
        "meta_mean_motion_ddot": 0,
        "tle_line1": "1 64694U 25141A   25340.91892373  .00002002  00000+0  36117-3 0  9992",
        "tle_line2": "2 64694  98.0423 276.5373 0001510  83.2673 276.8703 14.67557661 23642"
      },
      "geometry": {
        "type": "Point",
        "coordinates": [
          -85.44546876756007,
          16.851221673508967
        ]
      }
    },
    {
      "type": "Feature",
      "properties": {
        "norad_id": 64876,
        "name": "IONOSFERA-M 3",
        "group": "resource",
        "lat": -4.96920419219267,
        "lon": 122.66488656592162,
        "alt_km": 824.8066833670146,
        "timestamp": "2025-12-07T09:35:09.450055+00:00",
        "meta_object_name": "IONOSFERA-M 3",
        "meta_object_id": "2025-155A",
        "meta_epoch": "2025-12-06T22:34:57.713664",
        "meta_mean_motion": 14.21438785,
        "meta_eccentricity": 0.00023482,
        "meta_inclination": 98.5776,
        "meta_ra_of_asc_node": 302.9714,
        "meta_arg_of_pericenter": 69.1102,
        "meta_mean_anomaly": 291.0327,
        "meta_ephemeris_type": 0,
        "meta_classification_type": "U",
        "meta_norad_cat_id": 64876,
        "meta_element_set_no": 999,
        "meta_rev_at_epoch": 1909,
        "meta_bstar": 9.320005e-05,
        "meta_mean_motion_dot": 1.61e-06,
        "meta_mean_motion_ddot": 0,
        "tle_line1": "1 64876U 25155A   25340.94094576  .00000161  00000+0  93200-4 0  9992",
        "tle_line2": "2 64876  98.5776 302.9714 0002348  69.1102 291.0327 14.21438785 19093"
      },
      "geometry": {
        "type": "Point",
        "coordinates": [
          122.66488656592162,
          -4.96920419219267
        ]
      }
    },
    {
      "type": "Feature",
      "properties": {
        "norad_id": 64877,
        "name": "IONOSFERA-M 4",
        "group": "resource",
        "lat": 5.324449248427753,
        "lon": -57.469548321632686,
        "alt_km": 822.1192681070161,
        "timestamp": "2025-12-07T09:35:09.450065+00:00",
        "meta_object_name": "IONOSFERA-M 4",
        "meta_object_id": "2025-155B",
        "meta_epoch": "2025-12-06T21:44:06.006048",
        "meta_mean_motion": 14.21439866,
        "meta_eccentricity": 0.00017088,
        "meta_inclination": 98.5774,
        "meta_ra_of_asc_node": 302.8567,
        "meta_arg_of_pericenter": 69.4589,
        "meta_mean_anomaly": 290.6772,
        "meta_ephemeris_type": 0,
        "meta_classification_type": "U",
        "meta_norad_cat_id": 64877,
        "meta_element_set_no": 999,
        "meta_rev_at_epoch": 1908,
        "meta_bstar": 9.9442362e-05,
        "meta_mean_motion_dot": 1.75e-06,
        "meta_mean_motion_ddot": 0,
        "tle_line1": "1 64877U 25155B   25340.90562507  .00000175  00000+0  99442-4 0  9992",
        "tle_line2": "2 64877  98.5774 302.8567 0001708  69.4589 290.6772 14.21439866 19087"
      },
      "geometry": {
        "type": "Point",
        "coordinates": [
          -57.469548321632686,
          5.324449248427753
        ]
      }
    },
    {
      "type": "Feature",
      "properties": {
        "norad_id": 64899,
        "name": "MICROCARB",
        "group": "resource",
        "lat": -81.91457285840754,
        "lon": 154.8088755490339,
        "alt_km": 665.4664764511199,
        "timestamp": "2025-12-07T09:35:09.450075+00:00",
        "meta_object_name": "MICROCARB",
        "meta_object_id": "2025-156A",
        "meta_epoch": "2025-12-06T22:34:51.325248",
        "meta_mean_motion": 14.72042372,
        "meta_eccentricity": 0.0016761,
        "meta_inclination": 98.0029,
        "meta_ra_of_asc_node": 56.3791,
        "meta_arg_of_pericenter": 162.6689,
        "meta_mean_anomaly": 197.5093,
        "meta_ephemeris_type": 0,
        "meta_classification_type": "U",
        "meta_norad_cat_id": 64899,
        "meta_element_set_no": 999,
        "meta_rev_at_epoch": 1968,
        "meta_bstar": 0.00022760206,
        "meta_mean_motion_dot": 1.383e-05,
        "meta_mean_motion_ddot": 0,
        "tle_line1": "1 64899U 25156A   25340.94087182  .00001383  00000+0  22760-3 0  9992",
        "tle_line2": "2 64899  98.0029  56.3791 0016761 162.6689 197.5093 14.72042372 19686"
      },
      "geometry": {
        "type": "Point",
        "coordinates": [
          154.8088755490339,
          -81.91457285840754
        ]
      }
    },
    {
      "type": "Feature",
      "properties": {
        "norad_id": 64900,
        "name": "CO3D 3",
        "group": "resource",
        "lat": 72.26590127399318,
        "lon": -98.0568273369549,
        "alt_km": 497.3663313698753,
        "timestamp": "2025-12-07T09:35:09.450085+00:00",
        "meta_object_name": "CO3D 3",
        "meta_object_id": "2025-156B",
        "meta_epoch": "2025-12-06T22:03:45.810144",
        "meta_mean_motion": 15.20202224,
        "meta_eccentricity": 0.00013138,
        "meta_inclination": 97.4345,
        "meta_ra_of_asc_node": 57.3703,
        "meta_arg_of_pericenter": 113.5876,
        "meta_mean_anomaly": 246.5497,
        "meta_ephemeris_type": 0,
        "meta_classification_type": "U",
        "meta_norad_cat_id": 64900,
        "meta_element_set_no": 999,
        "meta_rev_at_epoch": 2032,
        "meta_bstar": 0.00047306705,
        "meta_mean_motion_dot": 0.00010187,
        "meta_mean_motion_ddot": 0,
        "tle_line1": "1 64900U 25156B   25340.91928021  .00010187  00000+0  47307-3 0  9994",
        "tle_line2": "2 64900  97.4345  57.3703 0001313 113.5876 246.5497 15.20202224 20321"
      },
      "geometry": {
        "type": "Point",
        "coordinates": [
          -98.0568273369549,
          72.26590127399318
        ]
      }
    },
    {
      "type": "Feature",
      "properties": {
        "norad_id": 64901,
        "name": "CO3D 4",
        "group": "resource",
        "lat": 73.04877550633964,
        "lon": -96.79019980018333,
        "alt_km": 498.63051326209916,
        "timestamp": "2025-12-07T09:35:09.450096+00:00",
        "meta_object_name": "CO3D 4",
        "meta_object_id": "2025-156C",
        "meta_epoch": "2025-12-06T22:03:58.707072",
        "meta_mean_motion": 15.20191148,
        "meta_eccentricity": 0.00010536,
        "meta_inclination": 97.4344,
        "meta_ra_of_asc_node": 57.3701,
        "meta_arg_of_pericenter": 228.7926,
        "meta_mean_anomaly": 131.3219,
        "meta_ephemeris_type": 0,
        "meta_classification_type": "U",
        "meta_norad_cat_id": 64901,
        "meta_element_set_no": 999,
        "meta_rev_at_epoch": 2032,
        "meta_bstar": 0.00044593821,
        "meta_mean_motion_dot": 9.595e-05,
        "meta_mean_motion_ddot": 0,
        "tle_line1": "1 64901U 25156C   25340.91942948  .00009595  00000+0  44594-3 0  9995",
        "tle_line2": "2 64901  97.4344  57.3701 0001053 228.7926 131.3219 15.20191148 20320"
      },
      "geometry": {
        "type": "Point",
        "coordinates": [
          -96.79019980018333,
          73.04877550633964
        ]
      }
    }
  ]
}